ONEWEB-0593             
1 54659U 22166T   26021.40855956  .00000158  00000+0  35148-3 0  9996
2 54659  87.9213 273.2593 0001622  72.3720 287.7591 13.21826419152154
ONEWEB-0594             
1 54660U 22166U   26021.42830189  .00000084  00000+0  17189-3 0  9994
2 54660  87.9212 273.2737 0001479  77.6752 282.4547 13.21824833152171
ONEWEB-0595             
1 54661U 22166V   26021.40525932  .00000178  00000+0  39947-3 0  9990
2 54661  87.9208 273.2501 0001452  83.4034 276.7265 13.21826584152140
ONEWEB-0596             
1 54662U 22166W   26021.45462239  .00000023  00000+0  22997-4 0  9993
2 54662  87.9210 273.2580 0001567  80.0727 280.0584 13.21826314152154
ONEWEB-0597             
1 54663U 22166X   26021.43653983 -.00000094  00000+0 -25817-3 0  9993
2 54663  87.9212 273.2664 0001705  77.0581 283.0743 13.21825852152154
ONEWEB-0600             
1 54664U 22166Y   26021.41844110 -.00000023  00000+0 -88133-4 0  9999
2 54664  87.9210 273.2610 0001636  72.6264 287.5049 13.21824863152122
ONEWEB-0601             
1 54665U 22166Z   26021.41021119  .00000152  00000+0  33590-3 0  9993
2 54665  87.9213 273.2806 0001852  73.9090 286.2247 13.21826131152311
ONEWEB-0602             
1 54666U 22166AA  26021.45051906  .00000060  00000+0  11383-3 0  9999
2 54666  87.9212 273.2772 0001520  65.3509 294.7783 13.21827787152165
ONEWEB-0603             
1 54667U 22166AB  26021.45627265  .00000034  00000+0  49941-4 0  9990
2 54667  87.9219 273.2180 0001711  74.0886 286.0437 13.21828160152091
ONEWEB-0604             
1 54668U 22166AC  26021.44475703 -.00000046  00000+0 -14195-3 0  9995
2 54668  87.9214 273.2370 0001539  77.4821 282.6485 13.21828511152053
ONEWEB-0605             
1 54669U 22166AD  26021.43818071  .00000001  00000+0 -28695-4 0  9995
2 54669  87.9210 273.2653 0002202  80.6977 279.4406 13.21825172152125
ONEWEB-0606             
1 54670U 22166AE  26021.38387609  .00000104  00000+0  22029-3 0  9996
2 54670  87.9210 273.2883 0001465  82.8222 277.3078 13.21826726152172
ONEWEB-0607             
1 54671U 22166AF  26021.42666433 -.00000084  00000+0 -23576-3 0  9994
2 54671  87.9209 273.2430 0001708  74.0665 286.0657 13.21825181152155
ONEWEB-0608             
1 54672U 22166AG  26021.43323714  .00000088  00000+0  18247-3 0  9999
2 54672  87.9220 273.2325 0002110  74.8579 285.2788 13.21824707152162
ONEWEB-0610             
1 54673U 22166AH  26021.41349331  .00000131  00000+0  28571-3 0  9991
2 54673  87.9210 273.2656 0002130  72.8982 287.2385 13.21825058152061
ONEWEB-0611             
1 54674U 22166AJ  26021.40691419  .00000139  00000+0  30607-3 0  9999
2 54674  87.9209 273.2632 0001347  77.7630 282.3655 13.21827069152056
ONEWEB-0612             
1 54675U 22166AK  26021.42008408 -.00000056  00000+0 -16612-3 0  9992
2 54675  87.9218 273.2406 0001725  74.9967 285.1358 13.21824987152044
