[{"OBJECT_NAME":"ONEWEB-0593","OBJECT_ID":"2022-166T","EPOCH":"2026-01-21T09:48:19.545984","MEAN_MOTION":13.21826419,"ECCENTRICITY":0.0001622,"INCLINATION":87.9213,"RA_OF_ASC_NODE":273.2593,"ARG_OF_PERICENTER":72.372,"MEAN_ANOMALY":287.7591,"EPHEMERIS_TYPE":0,"CLASSIFICATION_TYPE":"U","NORAD_CAT_ID":54659,"ELEMENT_SET_NO":999,"REV_AT_EPOCH":15215,"BSTAR":0.00035148,"MEAN_MOTION_DOT":1.58e-6,"MEAN_MOTION_DDOT":0},{"OBJECT_NAME":"ONEWEB-0594","OBJECT_ID":"2022-166U","EPOCH":"2026-01-21T10:16:45.283296","MEAN_MOTION":13.21824833,"ECCENTRICITY":0.0001479,"INCLINATION":87.9212,"RA_OF_ASC_NODE":273.2737,"ARG_OF_PERICENTER":77.6752,"MEAN_ANOMALY":282.4547,"EPHEMERIS_TYPE":0,"CLASSIFICATION_TYPE":"U","NORAD_CAT_ID":54660,"ELEMENT_SET_NO":999,"REV_AT_EPOCH":15217,"BSTAR":0.00017189,"MEAN_MOTION_DOT":8.4e-7,"MEAN_MOTION_DDOT":0},{"OBJECT_NAME":"ONEWEB-0595","OBJECT_ID":"2022-166V","EPOCH":"2026-01-21T09:43:34.405248","MEAN_MOTION":13.21826584,"ECCENTRICITY":0.0001452,"INCLINATION":87.9208,"RA_OF_ASC_NODE":273.2501,"ARG_OF_PERICENTER":83.4034,"MEAN_ANOMALY":276.7265,"EPHEMERIS_TYPE":0,"CLASSIFICATION_TYPE":"U","NORAD_CAT_ID":54661,"ELEMENT_SET_NO":999,"REV_AT_EPOCH":15214,"BSTAR":0.00039947,"MEAN_MOTION_DOT":1.78e-6,"MEAN_MOTION_DDOT":0},{"OBJECT_NAME":"ONEWEB-0596","OBJECT_ID":"2022-166W","EPOCH":"2026-01-21T10:54:39.374496","MEAN_MOTION":13.21826314,"ECCENTRICITY":0.0001567,"INCLINATION":87.921,"RA_OF_ASC_NODE":273.258,"ARG_OF_PERICENTER":80.0727,"MEAN_ANOMALY":280.0584,"EPHEMERIS_TYPE":0,"CLASSIFICATION_TYPE":"U","NORAD_CAT_ID":54662,"ELEMENT_SET_NO":999,"REV_AT_EPOCH":15215,"BSTAR":2.2997e-5,"MEAN_MOTION_DOT":2.3e-7,"MEAN_MOTION_DDOT":0},{"OBJECT_NAME":"ONEWEB-0597","OBJECT_ID":"2022-166X","EPOCH":"2026-01-21T10:28:37.041312","MEAN_MOTION":13.21825852,"ECCENTRICITY":0.0001705,"INCLINATION":87.9212,"RA_OF_ASC_NODE":273.2664,"ARG_OF_PERICENTER":77.0581,"MEAN_ANOMALY":283.0743,"EPHEMERIS_TYPE":0,"CLASSIFICATION_TYPE":"U","NORAD_CAT_ID":54663,"ELEMENT_SET_NO":999,"REV_AT_EPOCH":15215,"BSTAR":-0.00025817,"MEAN_MOTION_DOT":-9.4e-7,"MEAN_MOTION_DDOT":0},{"OBJECT_NAME":"ONEWEB-0600","OBJECT_ID":"2022-166Y","EPOCH":"2026-01-21T10:02:33.311040","MEAN_MOTION":13.21824863,"ECCENTRICITY":0.0001636,"INCLINATION":87.921,"RA_OF_ASC_NODE":273.261,"ARG_OF_PERICENTER":72.6264,"MEAN_ANOMALY":287.5049,"EPHEMERIS_TYPE":0,"CLASSIFICATION_TYPE":"U","NORAD_CAT_ID":54664,"ELEMENT_SET_NO":999,"REV_AT_EPOCH":15212,"BSTAR":-8.8133e-5,"MEAN_MOTION_DOT":-2.3e-7,"MEAN_MOTION_DDOT":0},{"OBJECT_NAME":"ONEWEB-0601","OBJECT_ID":"2022-166Z","EPOCH":"2026-01-21T09:50:42.246816","MEAN_MOTION":13.21826131,"ECCENTRICITY":0.0001852,"INCLINATION":87.9213,"RA_OF_ASC_NODE":273.2806,"ARG_OF_PERICENTER":73.909,"MEAN_ANOMALY":286.2247,"EPHEMERIS_TYPE":0,"CLASSIFICATION_TYPE":"U","NORAD_CAT_ID":54665,"ELEMENT_SET_NO":999,"REV_AT_EPOCH":15231,"BSTAR":0.0003359,"MEAN_MOTION_DOT":1.52e-6,"MEAN_MOTION_DDOT":0},{"OBJECT_NAME":"ONEWEB-0602","OBJECT_ID":"2022-166AA","EPOCH":"2026-01-21T10:48:44.846784","MEAN_MOTION":13.21827787,"ECCENTRICITY":0.000152,"INCLINATION":87.9212,"RA_OF_ASC_NODE":273.2772,"ARG_OF_PERICENTER":65.3509,"MEAN_ANOMALY":294.7783,"EPHEMERIS_TYPE":0,"CLASSIFICATION_TYPE":"U","NORAD_CAT_ID":54666,"ELEMENT_SET_NO":999,"REV_AT_EPOCH":15216,"BSTAR":0.00011383,"MEAN_MOTION_DOT":6.0e-7,"MEAN_MOTION_DDOT":0},{"OBJECT_NAME":"ONEWEB-0603","OBJECT_ID":"2022-166AB","EPOCH":"2026-01-21T10:57:01.956960","MEAN_MOTION":13.2182816,"ECCENTRICITY":0.0001711,"INCLINATION":87.9219,"RA_OF_ASC_NODE":273.218,"ARG_OF_PERICENTER":74.0886,"MEAN_ANOMALY":286.0437,"EPHEMERIS_TYPE":0,"CLASSIFICATION_TYPE":"U","NORAD_CAT_ID":54667,"ELEMENT_SET_NO":999,"REV_AT_EPOCH":15209,"BSTAR":4.9941e-5,"MEAN_MOTION_DOT":3.4e-7,"MEAN_MOTION_DDOT":0},{"OBJECT_NAME":"ONEWEB-0604","OBJECT_ID":"2022-166AC","EPOCH":"2026-01-21T10:40:27.007392","MEAN_MOTION":13.21828511,"ECCENTRICITY":0.0001539,"INCLINATION":87.9214,"RA_OF_ASC_NODE":273.237,"ARG_OF_PERICENTER":77.4821,"MEAN_ANOMALY":282.6485,"EPHEMERIS_TYPE":0,"CLASSIFICATION_TYPE":"U","NORAD_CAT_ID":54668,"ELEMENT_SET_NO":999,"REV_AT_EPOCH":15205,"BSTAR":-0.00014195,"MEAN_MOTION_DOT":-4.6e-7,"MEAN_MOTION_DDOT":0},{"OBJECT_NAME":"ONEWEB-0605","OBJECT_ID":"2022-166AD","EPOCH":"2026-01-21T10:30:58.813344","MEAN_MOTION":13.21825172,"ECCENTRICITY":0.0002202,"INCLINATION":87.921,"RA_OF_ASC_NODE":273.2653,"ARG_OF_PERICENTER":80.6977,"MEAN_ANOMALY":279.4406,"EPHEMERIS_TYPE":0,"CLASSIFICATION_TYPE":"U","NORAD_CAT_ID":54669,"ELEMENT_SET_NO":999,"REV_AT_EPOCH":15212,"BSTAR":-2.8695e-5,"MEAN_MOTION_DOT":1.0e-8,"MEAN_MOTION_DDOT":0},{"OBJECT_NAME":"ONEWEB-0606","OBJECT_ID":"2022-166AE","EPOCH":"2026-01-21T09:12:46.894176","MEAN_MOTION":13.21826726,"ECCENTRICITY":0.0001465,"INCLINATION":87.921,"RA_OF_ASC_NODE":273.2883,"ARG_OF_PERICENTER":82.8222,"MEAN_ANOMALY":277.3078,"EPHEMERIS_TYPE":0,"CLASSIFICATION_TYPE":"U","NORAD_CAT_ID":54670,"ELEMENT_SET_NO":999,"REV_AT_EPOCH":15217,"BSTAR":0.00022029,"MEAN_MOTION_DOT":1.04e-6,"MEAN_MOTION_DDOT":0},{"OBJECT_NAME":"ONEWEB-0607","OBJECT_ID":"2022-166AF","EPOCH":"2026-01-21T10:14:23.798112","MEAN_MOTION":13.21825181,"ECCENTRICITY":0.0001708,"INCLINATION":87.9209,"RA_OF_ASC_NODE":273.243,"ARG_OF_PERICENTER":74.0665,"MEAN_ANOMALY":286.0657,"EPHEMERIS_TYPE":0,"CLASSIFICATION_TYPE":"U","NORAD_CAT_ID":54671,"ELEMENT_SET_NO":999,"REV_AT_EPOCH":15215,"BSTAR":-0.00023576,"MEAN_MOTION_DOT":-8.4e-7,"MEAN_MOTION_DDOT":0},{"OBJECT_NAME":"ONEWEB-0608","OBJECT_ID":"2022-166AG","EPOCH":"2026-01-21T10:23:51.688896","MEAN_MOTION":13.21824707,"ECCENTRICITY":0.000211,"INCLINATION":87.922,"RA_OF_ASC_NODE":273.2325,"ARG_OF_PERICENTER":74.8579,"MEAN_ANOMALY":285.2788,"EPHEMERIS_TYPE":0,"CLASSIFICATION_TYPE":"U","NORAD_CAT_ID":54672,"ELEMENT_SET_NO":999,"REV_AT_EPOCH":15216,"BSTAR":0.00018247,"MEAN_MOTION_DOT":8.8e-7,"MEAN_MOTION_DDOT":0},{"OBJECT_NAME":"ONEWEB-0610","OBJECT_ID":"2022-166AH","EPOCH":"2026-01-21T09:55:25.821984","MEAN_MOTION":13.21825058,"ECCENTRICITY":0.000213,"INCLINATION":87.921,"RA_OF_ASC_NODE":273.2656,"ARG_OF_PERICENTER":72.8982,"MEAN_ANOMALY":287.2385,"EPHEMERIS_TYPE":0,"CLASSIFICATION_TYPE":"U","NORAD_CAT_ID":54673,"ELEMENT_SET_NO":999,"REV_AT_EPOCH":15206,"BSTAR":0.00028571,"MEAN_MOTION_DOT":1.31e-6,"MEAN_MOTION_DDOT":0},{"OBJECT_NAME":"ONEWEB-0611","OBJECT_ID":"2022-166AJ","EPOCH":"2026-01-21T09:45:57.386016","MEAN_MOTION":13.21827069,"ECCENTRICITY":0.0001347,"INCLINATION":87.9209,"RA_OF_ASC_NODE":273.2632,"ARG_OF_PERICENTER":77.763,"MEAN_ANOMALY":282.3655,"EPHEMERIS_TYPE":0,"CLASSIFICATION_TYPE":"U","NORAD_CAT_ID":54674,"ELEMENT_SET_NO":999,"REV_AT_EPOCH":15205,"BSTAR":0.00030607,"MEAN_MOTION_DOT":1.39e-6,"MEAN_MOTION_DDOT":0},{"OBJECT_NAME":"ONEWEB-0612","OBJECT_ID":"2022-166AK","EPOCH":"2026-01-21T10:04:55.264512","MEAN_MOTION":13.21824987,"ECCENTRICITY":0.0001725,"INCLINATION":87.9218,"RA_OF_ASC_NODE":273.2406,"ARG_OF_PERICENTER":74.9967,"MEAN_ANOMALY":285.1358,"EPHEMERIS_TYPE":0,"CLASSIFICATION_TYPE":"U","NORAD_CAT_ID":54675,"ELEMENT_SET_NO":999,"REV_AT_EPOCH":15204,"BSTAR":-0.00016612,"MEAN_MOTION_DOT":-5.6e-7,"MEAN_MOTION_DDOT":0}]
